[{"OBJECT_NAME":"JILIN-1 05","OBJECT_ID":"2017-074B","EPOCH":"2026-03-09T21:56:30.612480","MEAN_MOTION":15.3245271,"ECCENTRICITY":0.00045948,"INCLINATION":97.4781,"RA_OF_ASC_NODE":173.8936,"ARG_OF_PERICENTER":206.4038,"MEAN_ANOMALY":153.6971,"EPHEMERIS_TYPE":0,"CLASSIFICATION_TYPE":"U","NORAD_CAT_ID":43023,"ELEMENT_SET_NO":999,"REV_AT_EPOCH":45879,"BSTAR":0.00026108793,"MEAN_MOTION_DOT":8.104e-5,"MEAN_MOTION_DDOT":0},{"OBJECT_NAME":"STARLINK-33829","OBJECT_ID":"2025-071D","EPOCH":"2026-03-09T12:28:23.947968","MEAN_MOTION":15.3020939,"ECCENTRICITY":0.00011826,"INCLINATION":53.1599,"RA_OF_ASC_NODE":140.7355,"ARG_OF_PERICENTER":72.3028,"MEAN_ANOMALY":287.8101,"EPHEMERIS_TYPE":0,"CLASSIFICATION_TYPE":"U","NORAD_CAT_ID":63496,"ELEMENT_SET_NO":999,"REV_AT_EPOCH":5268,"BSTAR":0.00080040063,"MEAN_MOTION_DOT":0.00023428,"MEAN_MOTION_DDOT":0}]
